NORAD_CAT_ID,OBJECT_NAME,OBJECT_TYPE,EPOCH,MEAN_MOTION,ECCENTRICITY,INCLINATION,RA_OF_ASC_NODE,ARG_OF_PERICENTER,MEAN_ANOMALY,BSTAR,MEAN_MOTION_DOT,MEAN_MOTION_DDOT,TLE_LINE0,TLE_LINE1,TLE_LINE2,SEMIMAJOR_AXIS,PERIOD,APOGEE,PERIGEE,DECAYED
52349.0,STARLINK-3819,PAYLOAD,2022-08-19 14:00:01,15.08817945,0.0002227,53.2148,266.548,37.9195,208.3,0.0024298,0.00038572,0.0,0 STARLINK-3819,1 52349U 22045U   22231.58334491  .00038572  00000-0  24298-2 0  9995,2 52349  53.2148 266.5480 0002227  37.9195 208.3000 15.08817945  1301,6917.948,95.439,541.3530000000002,538.2719999999998,0.0
52349.0,STARLINK-3819,PAYLOAD,2022-08-19 16:00:00,15.08844668,0.0002194,53.2146,266.1734,37.978,301.13,-0.00079033,-0.00012846,0.0,0 STARLINK-3819,1 52349U 22045U   22231.66667824 -.00012846  00000-0 -79033-3 0  9999,2 52349  53.2146 266.1734 0002194  37.9780 301.1300 15.08844668 19812,6917.866,95.437,541.249,538.2130000000002,0.0
52349.0,STARLINK-3819,PAYLOAD,2022-08-19 22:00:00,15.08824836,0.0002012,53.2148,265.0499,41.6282,216.1801,0.00079339,0.00012356,0.0,0 STARLINK-3819,1 52349U 22045U   22231.91667824  .00012356  00000-0  79339-3 0  9990,2 52349  53.2148 265.0499 0002012  41.6282 216.1801 15.08824836  1309,6917.927,95.439,541.184,538.4,0.0
52349.0,STARLINK-3819,PAYLOAD,2022-08-20 14:00:01,15.08803237,0.0002186,53.2142,262.0589,36.6483,244.316,0.0017684999999999,0.00027942,0.0,0 STARLINK-3819,1 52349U 22045U   22232.58334491  .00027942  00000-0  17685-2 0  9997,2 52349  53.2142 262.0589 0002186  36.6483 244.3160 15.08803237  1302,6917.993,95.44,541.37,538.345,0.0
52349.0,STARLINK-3819,PAYLOAD,2022-08-20 22:00:00,15.08794832,0.000202,53.2142,260.5608,41.1281,251.4067,0.002558,0.00040608,0.0,0 STARLINK-3819,1 52349U 22045U   22232.91667824  .00040608  00000-0  25580-2 0  9990,2 52349  53.2142 260.5608 0002020  41.1281 251.4067 15.08794832 20004,6918.018,95.44,541.281,538.486,0.0
52349.0,STARLINK-3819,PAYLOAD,2022-08-21 14:00:01,15.0881395,0.0002262,53.2139,257.5698,37.4116,278.2514,0.0011163,0.0001751,0.0,0 STARLINK-3819,1 52349U 22045U   22233.58334491  .00017510  00000-0  11163-2 0  9993,2 52349  53.2139 257.5698 0002262  37.4116 278.2514 15.08813950  1307,6917.96,95.439,541.39,538.26,0.0
52349.0,STARLINK-3819,PAYLOAD,2022-08-21 22:00:00,15.08799203,0.0002106999999999,53.2139,256.0717,42.1671,285.0772,0.0028344999999999,0.00045062,0.0,0 STARLINK-3819,1 52349U 22045U   22233.91667824  .00045062  00000-0  28345-2 0  9992,2 52349  53.2139 256.0717 0002107  42.1671 285.0772 15.08799203  1306,6918.005,95.44,541.328,538.4119999999998,0.0
52349.0,STARLINK-3819,PAYLOAD,2022-08-22 12:00:00,15.0880452,0.0002393,53.214,253.4551,38.9203,218.5808,0.0029216999999999,0.00046474,0.0,0 STARLINK-3819,1 52349U 22045U   22234.50001157  .00046474  00000-0  29217-2 0  9996,2 52349  53.2140 253.4551 0002393  38.9203 218.5808 15.08804520  1306,6917.989000000001,95.44,541.509,538.198,0.0
52349.0,STARLINK-3819,PAYLOAD,2022-08-22 22:00:00,15.0880538,0.0002210999999999,53.2139,251.5825,43.07,318.9088,0.0029653,0.00047177,0.0,0 STARLINK-3819,1 52349U 22045U   22234.91667824  .00047177  00000-0  29653-2 0  9995,2 52349  53.2139 251.5825 0002211  43.0700 318.9088 15.08805380 20317,6917.986,95.44,541.381,538.322,0.0
52349.0,STARLINK-3819,PAYLOAD,2022-08-23 14:00:01,15.08836776,0.0002476,53.2139,248.5912,39.4588,345.6803,0.00011929,1.611e-05,0.0,0 STARLINK-3819,1 52349U 22045U   22235.58334491  .00001611  00000-0  11929-3 0  9991,2 52349  53.2139 248.5912 0002476  39.4588 345.6803 15.08836776 20412,6917.89,95.438,541.4680000000002,538.0419999999998,0.0
52349.0,STARLINK-3819,PAYLOAD,2022-08-23 22:00:01,15.08812906,0.0002309,53.2141,247.0931,44.286,352.5156,0.0029194,0.00046447,0.0,0 STARLINK-3819,1 52349U 22045U   22235.91668981  .00046447  00000-0  29194-2 0  9990,2 52349  53.2141 247.0931 0002309  44.2860 352.5156 15.08812906  1306,6917.9630000000025,95.439,541.4259999999998,538.231,0.0
52349.0,STARLINK-3819,PAYLOAD,2022-08-24 14:00:01,15.088464000000002,0.0002557,53.214,244.1018,40.9765,18.9386,-0.00038465,-6.406e-05,0.0,0 STARLINK-3819,1 52349U 22045U   22236.58334491 -.00006406  00000-0 -38465-3 0  9995,2 52349  53.2140 244.1018 0002557  40.9765  18.9386 15.08846400  1305,6917.861,95.437,541.495,537.957,0.0
52349.0,STARLINK-3819,PAYLOAD,2022-08-24 16:00:00,15.08858363,0.0002504999999999,53.2141,243.7272,42.6897,110.1225,-0.0021149999999999,-0.0003381,0.0,0 STARLINK-3819,1 52349U 22045U   22236.66667824 -.00033810  00000-0 -21150-2 0  9994,2 52349  53.2141 243.7272 0002505  42.6897 110.1225 15.08858363 20579,6917.824000000001,95.436,541.422,537.956,0.0
52349.0,STARLINK-3819,PAYLOAD,2022-08-24 22:00:00,15.08821183,0.0002376,53.2142,242.6037,45.8403,25.6827,0.0027397,0.00043563,0.0,0 STARLINK-3819,1 52349U 22045U   22236.91667824  .00043563  00000-0  27397-2 0  9995,2 52349  53.2142 242.6037 0002376  45.8403  25.6827 15.08821183  1309,6917.938,95.439,541.447,538.159,0.0
52349.0,STARLINK-3819,PAYLOAD,2022-08-25 06:00:02,15.08856998,0.0002555,53.2142,241.1087,44.3748,38.8037,-0.0016372,-0.00026264,0.0,0 STARLINK-3819,1 52349U 22045U   22237.25002315 -.00026264  00000-0 -16372-2 0  9993,2 52349  53.2142 241.1087 0002555  44.3748  38.8037 15.08856998 20664,6917.828,95.436,541.461,537.9259999999998,0.0
52349.0,STARLINK-3819,PAYLOAD,2022-08-25 14:00:01,15.08855383,0.0002593,53.214,239.6122,42.6808,52.0349,-0.00084791,-0.00013764,0.0,0 STARLINK-3819,1 52349U 22045U   22237.58334491 -.00013764  00000-0 -84791-3 0  9994,2 52349  53.2140 239.6122 0002593  42.6808  52.0349 15.08855383  1305,6917.833000000001,95.437,541.492,537.905,0.0
52349.0,STARLINK-3819,PAYLOAD,2022-08-25 22:00:00,15.08829302,0.0002411,53.2142,238.1143,47.5842,58.7452,0.0024613,0.00039091,0.0,0 STARLINK-3819,1 52349U 22045U   22237.91667824  .00039091  00000-0  24613-2 0  9995,2 52349  53.2142 238.1143 0002411  47.5842  58.7452 15.08829302  1305,6917.913000000001,95.438,541.446,538.11,0.0
52349.0,STARLINK-3819,PAYLOAD,2022-08-26 14:00:01,15.0886237,0.0002607,53.2138,235.1226,44.7973,84.8002,-0.0012607999999999,-0.00020312,0.0,0 STARLINK-3819,1 52349U 22045U   22238.58335648 -.00020312  00000-0 -12608-2 0  9994,2 52349  53.2138 235.1226 0002607  44.7973  84.8002 15.08862370  1303,6917.812,95.436,541.48,537.874,0.0
52349.0,STARLINK-3819,PAYLOAD,2022-08-26 22:00:00,15.08837656,0.0002446,53.214,233.6248,49.8473,91.3059,0.0021585999999999,0.00034232,0.0,0 STARLINK-3819,1 52349U 22045U   22238.91667824  .00034232  00000-0  21586-2 0  9994,2 52349  53.2140 233.6248 0002446  49.8473  91.3059 15.08837656  1309,6917.888000000001,95.438,541.445,538.06,0.0
52349.0,STARLINK-3819,PAYLOAD,2022-08-27 14:00:01,15.08876155,0.000258,53.2136,230.633,46.2232,118.1473,-0.0043996,-0.00069705,0.0,0 STARLINK-3819,1 52349U 22045U   22239.58334491 -.00069705  00000-0 -43996-2 0  9993,2 52349  53.2136 230.6330 0002580  46.2232 118.1473 15.08876155  1301,6917.77,95.435,541.42,537.85,0.0
52349.0,STARLINK-3819,PAYLOAD,2022-08-27 22:00:00,15.08819064,0.0002414,53.2137,229.1353,50.4386,125.5445,0.0018942999999999,0.00029972,0.0,0 STARLINK-3819,1 52349U 22045U   22239.91667824  .00029972  00000-0  18943-2 0  9993,2 52349  53.2137 229.1353 0002414  50.4386 125.5445 15.08819064  1300,6917.944,95.439,541.479,538.139,0.0
52349.0,STARLINK-3819,PAYLOAD,2022-08-28 06:00:00,15.08836553,0.00026,53.2137,227.6405,47.7047,139.8655,-0.00063076,-0.00010313,0.0,0 STARLINK-3819,1 52349U 22045U   22240.25001157 -.00010313  00000-0 -63076-3 0  9992,2 52349  53.2137 227.6405 0002600  47.7047 139.8655 15.08836553 21115,6917.891,95.438,541.555,537.957,0.0
52349.0,STARLINK-3819,PAYLOAD,2022-08-28 14:00:01,15.08853121,0.0002587,53.2136,226.1435,47.382,151.7706,-0.0018129,-0.00029037,0.0,0 STARLINK-3819,1 52349U 22045U   22240.58334491 -.00029037  00000-0 -18129-2 0  9999,2 52349  53.2136 226.1435 0002587  47.3820 151.7706 15.08853121  1309,6917.84,95.437,541.495,537.9159999999998,0.0
52349.0,STARLINK-3819,PAYLOAD,2022-08-28 22:00:00,15.08829622,0.0002504999999999,53.2138,224.6459,52.2193,158.5318,0.0017718,0.00028015,0.0,0 STARLINK-3819,1 52349U 22045U   22240.91667824  .00028015  00000-0  17718-2 0  9991,2 52349  53.2138 224.6459 0002505  52.2193 158.5318 15.08829622  1301,6917.9119999999975,95.438,541.51,538.044,0.0
52349.0,STARLINK-3819,PAYLOAD,2022-08-29 06:00:02,15.08840493,0.0002706999999999,53.2139,223.1511,48.9758,173.4353,-0.00024277,-4.15e-05,0.0,0 STARLINK-3819,1 52349U 22045U   22241.25002315 -.00004150  00000-0 -24277-3 0  9992,2 52349  53.2139 223.1511 0002707  48.9758 173.4353 15.08840493 21269,6917.879,95.438,541.617,537.871,0.0
52349.0,STARLINK-3819,PAYLOAD,2022-08-29 14:00:01,15.08862314,0.0002658,53.2139,221.654,48.6563,185.2819,-0.0020464,-0.00032731,0.0,0 STARLINK-3819,1 52349U 22045U   22241.58334491 -.00032731  00000-0 -20464-2 0  9990,2 52349  53.2139 221.6540 0002658  48.6563 185.2819 15.08862314  1307,6917.812,95.436,541.516,537.8380000000002,0.0
52349.0,STARLINK-3819,PAYLOAD,2022-08-29 22:00:00,15.08851009,0.0002566999999999,53.2142,220.1564,52.8518,192.6936,-0.0011412,-0.00018411,0.0,0 STARLINK-3819,1 52349U 22045U   22241.91667824 -.00018411  00000-0 -11412-2 0  9998,2 52349  53.2142 220.1564 0002567  52.8518 192.6936 15.08851009  1308,6917.847,95.437,541.488,537.936,0.0
52349.0,STARLINK-3819,PAYLOAD,2022-08-30 14:00:01,15.08847836,0.0002679,53.2145,217.1645,48.6885,220.0336,-0.0021725,-0.00034707,0.0,0 STARLINK-3819,1 52349U 22045U   22242.58334491 -.00034707  00000-0 -21725-2 0  9997,2 52349  53.2145 217.1645 0002679  48.6885 220.0336 15.08847836  1304,6917.856,95.437,541.575,537.868,0.0
52349.0,STARLINK-3819,PAYLOAD,2022-08-30 22:00:00,15.0882823,0.0002633,53.2149,215.6671,53.3709,226.9399,0.001642,0.00025933,0.0,0 STARLINK-3819,1 52349U 22045U   22242.91667824  .00025933  00000-0  16420-2 0  9998,2 52349  53.2149 215.6671 0002633  53.3709 226.9399 15.08828230  1309,6917.916,95.438,541.6030000000002,537.96,0.0
